NAYIF-1 (EO-88)         
1 42017U 17008BX  20070.42621256  .00001278  00000-0  52201-4 0  9999
2 42017  97.3707 139.3993 0004980 324.5794  35.5113 15.26207593170445
MAX VALIER SAT          
1 42778U 17036P   20070.10175040  .00000753  00000-0  35457-4 0  9995
2 42778  97.3186 126.4239 0012578  20.0329 340.1399 15.22438809150614
RADFXSAT (FOX-1B)       
1 43017U 17073E   20070.40329801  .00000763  00000-0  64570-4 0  9991
2 43017  97.7261 346.4464 0257790  13.3824 347.4056 14.78828397124521
FOX-1D (AO-92)          
1 43137U 18004AC  20069.75024392  .00000880  00000-0  39359-4 0  9999
2 43137  97.4557 141.5511 0010426  53.0981 307.1210 15.23925955119858
ES'HAIL 2               
1 43700U 18090A   20070.00049465  .00000127  00000-0  00000+0 0  9998
2 43700   0.0211 239.1166 0002381 137.3245 177.6630  1.00270979  4950
FOX-1CLIFF (AO-95)      
1 43770U 18099N   20069.84530786 -.00000154  00000-0 -88694-5 0  9998
2 43770  97.7153 142.9220 0015037 164.3100 195.8590 14.94923784 69032
ITASAT 1                
1 43786U 18099AE  20070.13279432  .00000261  00000-0  28876-4 0  9999
2 43786  97.7164 143.5529 0015912 157.8203 202.3710 14.95270082 69094
JY1SAT (JO-97)          
1 43803U 18099AX  20070.76082926  .00000456  00000-0  46375-4 0  9998
2 43803  97.7128 144.0147 0015897 155.6301 204.5675 14.95437769 69184
PSAT2 (NO-104)          
1 44354U 19036R   20070.35864337  .00008909  00000-0  13126-3 0  9999
2 44354  28.5322 310.5536 0372171 334.1036  24.1352 15.01429896 38898
BRICSAT2 (NO-103)       
1 44355U 19036S   20070.00680644  .00016184  00000-0  23521-3 0  9993
2 44355  28.5322 308.6799 0357987 337.1668  21.3357 15.04975951 38884
JAISAT-1                
1 44419U 19038F   20070.13381136  .00000708  00000-0  44038-4 0  9996
2 44419  97.5268  32.9794 0023211 111.3026 249.0686 15.12607227 37589
DUCHIFAT-3              
1 44854U 19089C   20070.77893138  .00000319  00000-0  32291-4 0  9991
2 44854  36.9698 321.4670 0009392 337.8438  22.1914 14.98990138 13487
HUSKYSAT-1              
1 45119U 19071J   20070.14009762  .00001311  00000-0  51807-4 0  9997
2 45119  51.6434 123.0925 0012852  57.3708 302.8513 15.33203355  5888
